[{"OBJECT_NAME":"STARLINK-4695","OBJECT_ID":"2022-107U","EPOCH":"2026-03-09T17:11:15.593280","MEAN_MOTION":15.0883119,"ECCENTRICITY":0.00013568,"INCLINATION":53.2168,"RA_OF_ASC_NODE":254.2692,"ARG_OF_PERICENTER":70.9322,"MEAN_ANOMALY":289.1817,"EPHEMERIS_TYPE":0,"CLASSIFICATION_TYPE":"U","NORAD_CAT_ID":53718,"ELEMENT_SET_NO":999,"REV_AT_EPOCH":19440,"BSTAR":0.00011696627,"MEAN_MOTION_DOT":1.574e-5,"MEAN_MOTION_DDOT":0},{"OBJECT_NAME":"CZ-6A DEB","OBJECT_ID":"2024-140RN","EPOCH":"2026-03-09T09:36:23.350464","MEAN_MOTION":14.99974811,"ECCENTRICITY":0.0047719,"INCLINATION":88.1445,"RA_OF_ASC_NODE":217.6461,"ARG_OF_PERICENTER":172.1525,"MEAN_ANOMALY":188.0467,"EPHEMERIS_TYPE":0,"CLASSIFICATION_TYPE":"U","NORAD_CAT_ID":61168,"ELEMENT_SET_NO":999,"REV_AT_EPOCH":8322,"BSTAR":0.0063622011,"MEAN_MOTION_DOT":0.00081758,"MEAN_MOTION_DDOT":0}]
